{
  "type": "FeatureCollection",
  "features": [
    {
      "type": "Feature",
      "properties": {
        "norad_id": 32393,
        "name": "COSMOS 2434 (721)",
        "group": "gnss",
        "lat": -22.881210123831938,
        "lon": -173.99055841019543,
        "alt_km": 19134.90388391541,
        "timestamp": "2025-12-26T19:22:39.148917+00:00",
        "meta_object_name": "COSMOS 2434 (721)",
        "meta_object_id": "2007-065A",
        "meta_epoch": "2025-12-26T03:18:00.211680",
        "meta_mean_motion": 2.13101396,
        "meta_eccentricity": 0.00048072,
        "meta_inclination": 64.3159,
        "meta_ra_of_asc_node": 197.7509,
        "meta_arg_of_pericenter": 72.2168,
        "meta_mean_anomaly": 108.4046,
        "meta_ephemeris_type": 0,
        "meta_classification_type": "U",
        "meta_norad_cat_id": 32393,
        "meta_element_set_no": 999,
        "meta_rev_at_epoch": 14008,
        "meta_bstar": 0,
        "meta_mean_motion_dot": 1.11e-06,
        "meta_mean_motion_ddot": 0,
        "tle_line1": "1 32393U 07065A   25360.13750245  .00000111  00000+0  00000+0 0  9992",
        "tle_line2": "2 32393  64.3159 197.7509 0004807  72.2168 108.4046  2.13101396140085"
      },
      "geometry": {
        "type": "Point",
        "coordinates": [
          -173.99055841019543,
          -22.881210123831938
        ]
      }
    },
    {
      "type": "Feature",
      "properties": {
        "norad_id": 32395,
        "name": "COSMOS 2436 (723)",
        "group": "gnss",
        "lat": 59.11723114301973,
        "lon": -35.770761862910696,
        "alt_km": 19129.299686288985,
        "timestamp": "2025-12-26T19:22:39.148928+00:00",
        "meta_object_name": "COSMOS 2436 (723)",
        "meta_object_id": "2007-065C",
        "meta_epoch": "2025-12-26T09:51:08.082144",
        "meta_mean_motion": 2.13100172,
        "meta_eccentricity": 0.00178128,
        "meta_inclination": 64.3246,
        "meta_ra_of_asc_node": 197.8121,
        "meta_arg_of_pericenter": 10.2944,
        "meta_mean_anomaly": 152.7872,
        "meta_ephemeris_type": 0,
        "meta_classification_type": "U",
        "meta_norad_cat_id": 32395,
        "meta_element_set_no": 999,
        "meta_rev_at_epoch": 14004,
        "meta_bstar": 0,
        "meta_mean_motion_dot": 1.14e-06,
        "meta_mean_motion_ddot": 0,
        "tle_line1": "1 32395U 07065C   25360.41051021  .00000114  00000+0  00000+0 0  9994",
        "tle_line2": "2 32395  64.3246 197.8121 0017812  10.2944 152.7872  2.13100172140045"
      },
      "geometry": {
        "type": "Point",
        "coordinates": [
          -35.770761862910696,
          59.11723114301973
        ]
      }
    },
    {
      "type": "Feature",
      "properties": {
        "norad_id": 32711,
        "name": "GPS BIIRM-6 (PRN 07)",
        "group": "gnss",
        "lat": 44.029384799010614,
        "lon": -66.86604935046631,
        "alt_km": 20468.99272093087,
        "timestamp": "2025-12-26T19:22:39.148941+00:00",
        "meta_object_name": "GPS BIIRM-6 (PRN 07)",
        "meta_object_id": "2008-012A",
        "meta_epoch": "2025-12-26T15:12:37.836000",
        "meta_mean_motion": 2.00566158,
        "meta_eccentricity": 0.02030663,
        "meta_inclination": 54.4786,
        "meta_ra_of_asc_node": 156.8183,
        "meta_arg_of_pericenter": 245.1156,
        "meta_mean_anomaly": 112.7524,
        "meta_ephemeris_type": 0,
        "meta_classification_type": "U",
        "meta_norad_cat_id": 32711,
        "meta_element_set_no": 999,
        "meta_rev_at_epoch": 13029,
        "meta_bstar": 0,
        "meta_mean_motion_dot": 1.07e-06,
        "meta_mean_motion_ddot": 0,
        "tle_line1": "1 32711U 08012A   25360.63377125  .00000107  00000+0  00000+0 0  9991",
        "tle_line2": "2 32711  54.4786 156.8183 0203066 245.1156 112.7524  2.00566158130293"
      },
      "geometry": {
        "type": "Point",
        "coordinates": [
          -66.86604935046631,
          44.029384799010614
        ]
      }
    },
    {
      "type": "Feature",
      "properties": {
        "norad_id": 35752,
        "name": "GPS BIIRM-8 (PRN 05)",
        "group": "gnss",
        "lat": 29.510319517372977,
        "lon": -168.11809033944445,
        "alt_km": 20113.407899141406,
        "timestamp": "2025-12-26T19:22:39.148952+00:00",
        "meta_object_name": "GPS BIIRM-8 (PRN 05)",
        "meta_object_id": "2009-043A",
        "meta_epoch": "2025-12-26T02:26:22.079616",
        "meta_mean_motion": 2.00564782,
        "meta_eccentricity": 0.00515557,
        "meta_inclination": 56.1002,
        "meta_ra_of_asc_node": 34.2563,
        "meta_arg_of_pericenter": 81.6915,
        "meta_mean_anomaly": 271.8027,
        "meta_ephemeris_type": 0,
        "meta_classification_type": "U",
        "meta_norad_cat_id": 35752,
        "meta_element_set_no": 999,
        "meta_rev_at_epoch": 11988,
        "meta_bstar": 0,
        "meta_mean_motion_dot": -5.1e-07,
        "meta_mean_motion_ddot": 0,
        "tle_line1": "1 35752U 09043A   25360.10164444 -.00000051  00000+0  00000+0 0  9993",
        "tle_line2": "2 35752  56.1002  34.2563 0051555  81.6915 271.8027  2.00564782119880"
      },
      "geometry": {
        "type": "Point",
        "coordinates": [
          -168.11809033944445,
          29.510319517372977
        ]
      }
    },
    {
      "type": "Feature",
      "properties": {
        "norad_id": 36111,
        "name": "COSMOS 2456 (730)",
        "group": "gnss",
        "lat": 42.558381700091644,
        "lon": -128.57711916853407,
        "alt_km": 19133.835766671476,
        "timestamp": "2025-12-26T19:22:39.148966+00:00",
        "meta_object_name": "COSMOS 2456 (730)",
        "meta_object_id": "2009-070A",
        "meta_epoch": "2025-12-26T06:16:15.549312",
        "meta_mean_motion": 2.13103733,
        "meta_eccentricity": 0.0003681,
        "meta_inclination": 64.907,
        "meta_ra_of_asc_node": 76.8759,
        "meta_arg_of_pericenter": 294.867,
        "meta_mean_anomaly": 137.8789,
        "meta_ephemeris_type": 0,
        "meta_classification_type": "U",
        "meta_norad_cat_id": 36111,
        "meta_element_set_no": 999,
        "meta_rev_at_epoch": 12474,
        "meta_bstar": 0,
        "meta_mean_motion_dot": -8e-08,
        "meta_mean_motion_ddot": 0,
        "tle_line1": "1 36111U 09070A   25360.26129108 -.00000008  00000+0  00000+0 0  9990",
        "tle_line2": "2 36111  64.9070  76.8759 0003681 294.8670 137.8789  2.13103733124740"
      },
      "geometry": {
        "type": "Point",
        "coordinates": [
          -128.57711916853407,
          42.558381700091644
        ]
      }
    },
    {
      "type": "Feature",
      "properties": {
        "norad_id": 36112,
        "name": "COSMOS 2457 (733)",
        "group": "gnss",
        "lat": -63.36242611906021,
        "lon": -34.292140240389,
        "alt_km": 19137.76969531106,
        "timestamp": "2025-12-26T19:22:39.148985+00:00",
        "meta_object_name": "COSMOS 2457 (733)",
        "meta_object_id": "2009-070B",
        "meta_epoch": "2025-12-26T13:03:04.060800",
        "meta_mean_motion": 2.13101072,
        "meta_eccentricity": 0.00043952,
        "meta_inclination": 64.8927,
        "meta_ra_of_asc_node": 76.7135,
        "meta_arg_of_pericenter": 164.2484,
        "meta_mean_anomaly": 254.2411,
        "meta_ephemeris_type": 0,
        "meta_classification_type": "U",
        "meta_norad_cat_id": 36112,
        "meta_element_set_no": 999,
        "meta_rev_at_epoch": 12475,
        "meta_bstar": 0,
        "meta_mean_motion_dot": -1e-07,
        "meta_mean_motion_ddot": 0,
        "tle_line1": "1 36112U 09070B   25360.54379700 -.00000010  00000+0  00000+0 0  9990",
        "tle_line2": "2 36112  64.8927  76.7135 0004395 164.2484 254.2411  2.13101072124755"
      },
      "geometry": {
        "type": "Point",
        "coordinates": [
          -34.292140240389,
          -63.36242611906021
        ]
      }
    },
    {
      "type": "Feature",
      "properties": {
        "norad_id": 36402,
        "name": "COSMOS 2460 (732)",
        "group": "gnss",
        "lat": -63.82871556071896,
        "lon": -151.84299721255633,
        "alt_km": 19130.326898242918,
        "timestamp": "2025-12-26T19:22:39.148998+00:00",
        "meta_object_name": "COSMOS 2460 (732)",
        "meta_object_id": "2010-007C",
        "meta_epoch": "2025-12-25T05:13:15.714336",
        "meta_mean_motion": 2.13106358,
        "meta_eccentricity": 0.00024876,
        "meta_inclination": 65.5229,
        "meta_ra_of_asc_node": 320.3522,
        "meta_arg_of_pericenter": 284.3328,
        "meta_mean_anomaly": 196.3839,
        "meta_ephemeris_type": 0,
        "meta_classification_type": "U",
        "meta_norad_cat_id": 36402,
        "meta_element_set_no": 999,
        "meta_rev_at_epoch": 12302,
        "meta_bstar": 0,
        "meta_mean_motion_dot": -3.2e-07,
        "meta_mean_motion_ddot": 0,
        "tle_line1": "1 36402U 10007C   25359.21754299 -.00000032  00000+0  00000+0 0  9990",
        "tle_line2": "2 36402  65.5229 320.3522 0002487 284.3328 196.3839  2.13106358123020"
      },
      "geometry": {
        "type": "Point",
        "coordinates": [
          -151.84299721255633,
          -63.82871556071896
        ]
      }
    }
  ]
}